{
  "links" : {
    "next" : "https://api.nasa.gov/neo/rest/v1/neo/browse?page=47&size=20&api_key=jqAGvNAwUIBu4fl9FSOjdm3V4F7hIglRzI6pdX9d",
    "prev" : "https://api.nasa.gov/neo/rest/v1/neo/browse?page=45&size=20&api_key=jqAGvNAwUIBu4fl9FSOjdm3V4F7hIglRzI6pdX9d",
    "self" : "https://api.nasa.gov/neo/rest/v1/neo/browse?page=46&size=20&api_key=jqAGvNAwUIBu4fl9FSOjdm3V4F7hIglRzI6pdX9d"
  },
  "page" : {
    "size" : 20,
    "total_elements" : 20750,
    "total_pages" : 1038,
    "number" : 46
  },
  "near_earth_objects" : [ {
    "links" : {
      "self" : "https://api.nasa.gov/neo/rest/v1/neo/3429817?api_key=jqAGvNAwUIBu4fl9FSOjdm3V4F7hIglRzI6pdX9d"
    },
    "neo_reference_id" : "3429817",
    "name" : "(2008 TB2)",
    "designation" : "2008 TB2",
    "nasa_jpl_url" : "http://ssd.jpl.nasa.gov/sbdb.cgi?sstr=3429817",
    "absolute_magnitude_h" : 24.5,
    "estimated_diameter" : {
      "kilometers" : {
        "estimated_diameter_min" : 0.0334622374,
        "estimated_diameter_max" : 0.0748238376
      },
      "meters" : {
        "estimated_diameter_min" : 33.4622374455,
        "estimated_diameter_max" : 74.8238376074
      },
      "miles" : {
        "estimated_diameter_min" : 0.0207924639,
        "estimated_diameter_max" : 0.0464933628
      },
      "feet" : {
        "estimated_diameter_min" : 109.7842471007,
        "estimated_diameter_max" : 245.4850393757
      }
    },
    "is_potentially_hazardous_asteroid" : false,
    "close_approach_data" : [ {
      "close_approach_date" : "2008-10-05",
      "epoch_date_close_approach" : 1223190000000,
      "relative_velocity" : {
        "kilometers_per_second" : "6.0448619006",
        "kilometers_per_hour" : "21761.5028422567",
        "miles_per_hour" : "13521.7515855122"
      },
      "miss_distance" : {
        "astronomical" : "0.0585083111",
        "lunar" : "22.7597332001",
        "kilometers" : "8752719",
        "miles" : "5438687.5"
      },
      "orbiting_body" : "Earth"
    } ],
    "orbital_data" : {
      "orbit_id" : "13",
      "orbit_determination_date" : "2017-04-06 09:02:43",
      "first_observation_date" : "2008-10-03",
      "last_observation_date" : "2008-10-19",
      "data_arc_in_days" : 16,
      "observations_used" : 69,
      "orbit_uncertainty" : "8",
      "minimum_orbit_intersection" : ".0575498",
      "jupiter_tisserand_invariant" : "3.612",
      "epoch_osculation" : "2454744.5",
      "eccentricity" : ".4899932801923249",
      "semi_major_axis" : "2.069204055715288",
      "inclination" : "3.913300077766006",
      "ascending_node_longitude" : "10.12944130053807",
      "orbital_period" : "1087.184891267039",
      "perihelion_distance" : "1.055307973068092",
      "perihelion_argument" : "9.409673558689642",
      "aphelion_distance" : "3.083100138362485",
      "perihelion_time" : "2454750.886980490776",
      "mean_anomaly" : "357.8850764068293",
      "mean_motion" : ".331130429508126",
      "equinox" : "J2000",
      "orbit_class" : {
        "orbit_class_type" : "AMO",
        "orbit_class_range" : "1.017 AU < q (perihelion) < 1.3 AU",
        "orbit_class_description" : "Near-Earth asteroid orbits similar to that of 1221 Amor"
      }
    },
    "is_sentry_object" : false
  }, {
    "links" : {
      "self" : "https://api.nasa.gov/neo/rest/v1/neo/3429820?api_key=jqAGvNAwUIBu4fl9FSOjdm3V4F7hIglRzI6pdX9d"
    },
    "neo_reference_id" : "3429820",
    "name" : "(2008 TE2)",
    "designation" : "2008 TE2",
    "nasa_jpl_url" : "http://ssd.jpl.nasa.gov/sbdb.cgi?sstr=3429820",
    "absolute_magnitude_h" : 27.3,
    "estimated_diameter" : {
      "kilometers" : {
        "estimated_diameter_min" : 0.0092162655,
        "estimated_diameter_max" : 0.0206081961
      },
      "meters" : {
        "estimated_diameter_min" : 9.216265485,
        "estimated_diameter_max" : 20.6081961232
      },
      "miles" : {
        "estimated_diameter_min" : 0.0057267201,
        "estimated_diameter_max" : 0.0128053354
      },
      "feet" : {
        "estimated_diameter_min" : 30.2370924539,
        "estimated_diameter_max" : 67.6121941689
      }
    },
    "is_potentially_hazardous_asteroid" : false,
    "close_approach_data" : [ {
      "close_approach_date" : "2008-09-28",
      "epoch_date_close_approach" : 1222585200000,
      "relative_velocity" : {
        "kilometers_per_second" : "4.7394620256",
        "kilometers_per_hour" : "17062.0632920834",
        "miles_per_hour" : "10601.7026050171"
      },
      "miss_distance" : {
        "astronomical" : "0.0111945476",
        "lunar" : "4.3546791077",
        "kilometers" : "1674680.5",
        "miles" : "1040598.25"
      },
      "orbiting_body" : "Earth"
    } ],
    "orbital_data" : {
      "orbit_id" : "6",
      "orbit_determination_date" : "2017-04-06 09:02:41",
      "first_observation_date" : "2008-10-03",
      "last_observation_date" : "2008-10-04",
      "data_arc_in_days" : 1,
      "observations_used" : 12,
      "orbit_uncertainty" : "8",
      "minimum_orbit_intersection" : ".00927022",
      "jupiter_tisserand_invariant" : "4.489",
      "epoch_osculation" : "2454743.5",
      "eccentricity" : ".3257313603741737",
      "semi_major_axis" : "1.497004521747646",
      "inclination" : "3.177667619717674",
      "ascending_node_longitude" : "10.63552456820086",
      "orbital_period" : "669.0107481540762",
      "perihelion_distance" : "1.009383202392496",
      "perihelion_argument" : "2.969602519670759",
      "aphelion_distance" : "1.984625841102796",
      "perihelion_time" : "2454745.014234397672",
      "mean_anomaly" : "359.1851784374675",
      "mean_motion" : ".5381079466859183",
      "equinox" : "J2000",
      "orbit_class" : {
        "orbit_class_type" : "APO",
        "orbit_class_range" : "a (semi-major axis) > 1.0 AU; q (perihelion) < 1.017 AU",
        "orbit_class_description" : "Near-Earth asteroid orbits which cross the Earth’s orbit similar to that of 1862 Apollo"
      }
    },
    "is_sentry_object" : false
  } ]
}